[{"OBJECT_NAME":"KUIPER-00061","OBJECT_ID":"2025-134X","EPOCH":"2026-03-09T15:15:19.823040","MEAN_MOTION":14.79934944,"ECCENTRICITY":0.0001106,"INCLINATION":51.9009,"RA_OF_ASC_NODE":228.3294,"ARG_OF_PERICENTER":105.4338,"MEAN_ANOMALY":254.6746,"EPHEMERIS_TYPE":0,"CLASSIFICATION_TYPE":"U","NORAD_CAT_ID":64521,"ELEMENT_SET_NO":999,"REV_AT_EPOCH":4012,"BSTAR":0.00068069,"MEAN_MOTION_DOT":4.972e-5,"MEAN_MOTION_DDOT":0},{"OBJECT_NAME":"SL-16 R\/B","OBJECT_ID":"1999-039B","EPOCH":"2026-03-09T18:24:22.966272","MEAN_MOTION":14.8173167,"ECCENTRICITY":0.00135065,"INCLINATION":97.9966,"RA_OF_ASC_NODE":127.8636,"ARG_OF_PERICENTER":255.8246,"MEAN_ANOMALY":104.1466,"EPHEMERIS_TYPE":0,"CLASSIFICATION_TYPE":"U","NORAD_CAT_ID":25861,"ELEMENT_SET_NO":999,"REV_AT_EPOCH":43687,"BSTAR":9.8724714e-5,"MEAN_MOTION_DOT":7.25e-6,"MEAN_MOTION_DDOT":0}]
